{
    "links": {
        "self": "http://www.neowsapp.com/rest/v1/neo/3843861?api_key=iIulBulltgU6a56xZRHN4H3l9WmuAYTsLGpBGhQ2"
    },
    "id": "3843861",
    "neo_reference_id": "3843861",
    "name": "(2019 RX3)",
    "designation": "2019 RX3",
    "nasa_jpl_url": "http://ssd.jpl.nasa.gov/sbdb.cgi?sstr=3843861",
    "absolute_magnitude_h": 22.0,
    "estimated_diameter": {
        "kilometers": {
            "estimated_diameter_min": 0.1058168859,
            "estimated_diameter_max": 0.2366137501
        },
        "meters": {
            "estimated_diameter_min": 105.8168859331,
            "estimated_diameter_max": 236.6137501138
        },
        "miles": {
            "estimated_diameter_min": 0.0657515442,
            "estimated_diameter_max": 0.1470249225
        },
        "feet": {
            "estimated_diameter_min": 347.1682720448,
            "estimated_diameter_max": 776.2918559233
        }
    },
    "is_potentially_hazardous_asteroid": false,
    "close_approach_data": [
        {
            "close_approach_date": "2013-10-21",
            "close_approach_date_full": "2013-Oct-21 07:27",
            "epoch_date_close_approach": 1382340420000,
            "relative_velocity": {
                "kilometers_per_second": "5.585587284",
                "kilometers_per_hour": "20108.1142225589",
                "miles_per_hour": "12494.4001956783"
            },
            "miss_distance": {
                "astronomical": "1.6194408687",
                "lunar": "629.9624979243",
                "kilometers": "242264904.548469669",
                "miles": "150536431.2193486722"
            },
            "orbiting_body": "Juptr"
        },
        {
            "close_approach_date": "2019-07-27",
            "close_approach_date_full": "2019-Jul-27 20:42",
            "epoch_date_close_approach": 1564260120000,
            "relative_velocity": {
                "kilometers_per_second": "10.7334243267",
                "kilometers_per_hour": "38640.3275761906",
                "miles_per_hour": "24009.5968764391"
            },
            "miss_distance": {
                "astronomical": "0.055079618",
                "lunar": "21.425971402",
                "kilometers": "8239793.53321366",
                "miles": "5119970.285362108"
            },
            "orbiting_body": "Earth"
        }
    ],
    "orbital_data": {
        "orbit_id": "7",
        "orbit_determination_date": "2019-12-13 20:28:05",
        "first_observation_date": "2019-09-11",
        "last_observation_date": "2019-10-08",
        "data_arc_in_days": 27,
        "observations_used": 22,
        "orbit_uncertainty": "7",
        "minimum_orbit_intersection": ".0372655",
        "jupiter_tisserand_invariant": "3.191",
        "epoch_osculation": "2459000.5",
        "eccentricity": ".6127483967827643",
        "semi_major_axis": "2.459508841834448",
        "inclination": "8.371496335394895",
        "ascending_node_longitude": "305.2234414492984",
        "orbital_period": "1408.870284231459",
        "perihelion_distance": ".9524487421273566",
        "perihelion_argument": "345.6827200150678",
        "aphelion_distance": "3.966568941541539",
        "perihelion_time": "2458681.531925929900",
        "mean_anomaly": "81.50395955570529",
        "mean_motion": ".2555238789754024",
        "equinox": "J2000",
        "orbit_class": {
            "orbit_class_type": "APO",
            "orbit_class_description": "Near-Earth asteroid orbits which cross the Earth’s orbit similar to that of 1862 Apollo",
            "orbit_class_range": "a (semi-major axis) > 1.0 AU; q (perihelion) < 1.017 AU"
        }
    },
    "is_sentry_object": false
}